ONEWEB-0157             
1 48055U 21025P   26194.35879485 -.00000303  00000+0 -86380-3 0  9998
2 48055  87.8979 315.0159 0002268  96.7010 263.4377 13.13471058257006
ONEWEB-0162             
1 48056U 21025Q   26194.41114991  .00000245  00000+0  63633-3 0  9999
2 48056  87.8980 315.0053 0001905  97.4821 262.6524 13.13469002256984
ONEWEB-0155             
1 48057U 21025R   26194.34188580  .00000085  00000+0  19794-3 0  9998
2 48057  87.8980 315.0159 0002037  99.0346 261.1013 13.13473349257111
ONEWEB-0149             
1 48058U 21025S   26194.36387936 -.00000357  00000+0 -10130-2 0  9995
2 48058  87.8978 315.0169 0001825  99.8490 260.2845 13.13469447256927
ONEWEB-0148             
1 48059U 21025T   26194.32664046  .00000309  00000+0  81242-3 0  9990
2 48059  87.8976 315.0281 0001961  83.6454 276.4899 13.13469477257048
ONEWEB-0160             
1 48060U 21025U   26194.34356019  .00000030  00000+0  46746-4 0  9994
2 48060  87.8976 315.0208 0001312 115.2151 244.9114 13.13469068256994
ONEWEB-0163             
1 48061U 21025V   26194.32833263  .00000304  00000+0  79827-3 0  9993
2 48061  87.8986 315.0201 0002204  99.4768 260.6611 13.13469256257118
ONEWEB-0159             
1 48062U 21025W   26194.39604514  .00000308  00000+0  80712-3 0  9995
2 48062  87.8986 315.0007 0002199  99.7239 260.4139 13.13470252257045
ONEWEB-0164             
1 48063U 21025X   26194.37741791 -.00000123  00000+0 -37245-3 0  9993
2 48063  87.8981 315.0111 0001874 102.8987 257.2352 13.13470084257024
ONEWEB-0167             
1 48064U 21025Y   26194.40536382  .00000328  00000+0  86418-3 0  9997
2 48064  87.8971 315.0134 0002484 107.6559 252.4841 13.13469910257010
ONEWEB-0166             
1 48065U 21025Z   26194.35202907 -.00000056  00000+0 -18852-3 0  9992
2 48065  87.8988 314.9973 0001999  98.2822 261.8534 13.13469738257084
ONEWEB-0151             
1 48066U 21025AA  26194.35371338 -.00000164  00000+0 -48425-3 0  9997
2 48066  87.8983 315.0119 0002015 103.1214 257.0140 13.13469551257022
ONEWEB-0170             
1 48067U 21025AB  26194.36217535 -.00000336  00000+0 -95641-3 0  9990
2 48067  87.8980 315.0124 0001788 117.7452 242.3858 13.13468974256982
ONEWEB-0168             
1 48068U 21025AC  26194.34694660 -.00000065  00000+0 -21261-3 0  9993
2 48068  87.8986 315.0162 0001994 101.8811 258.2542 13.13468758256990
ONEWEB-0173             
1 48069U 21025AD  26194.41466471  .00000164  00000+0  41383-3 0  9994
2 48069  87.8979 315.0030 0002313 102.0203 258.1185 13.13469073257243
ONEWEB-0171             
1 48070U 21025AE  26194.37572347 -.00000163  00000+0 -48068-3 0  9999
2 48070  87.8973 315.0186 0001961 103.0955 257.0393 13.13470122257059
ONEWEB-0172             
1 48071U 21025AF  26194.35540647 -.00000128  00000+0 -38528-3 0  9997
2 48071  87.8984 315.0145 0002084 102.7358 257.4004 13.13470571257946
ONEWEB-0174             
1 48072U 21025AG  26194.33679752  .00000197  00000+0  50406-3 0  9999
2 48072  87.8983 315.0170 0001957  96.2524 263.8828 13.13468844257264
ONEWEB-0175             
1 48073U 21025AH  26194.36725896 -.00000216  00000+0 -62512-3 0  9999
2 48073  87.8983 314.9964 0002085 108.6980 251.4376 13.13469978256923
ONEWEB-0177             
1 48074U 21025AJ  26194.37911230 -.00000085  00000+0 -26764-3 0  9993
2 48074  87.8980 315.0117 0002105  95.9891 264.1478 13.13470639257117
ONEWEB-0178             
1 48075U 21025AK  26194.32170039  .00000327  00000+0  86116-3 0  9997
2 48075  87.8976 315.0324 0002173 105.0060 255.1310 13.13470930257152
ONEWEB-0108             
1 48076U 21025AL  26194.35710308 -.00000244  00000+0 -70308-3 0  9996
2 48076  87.8983 315.0086 0001721  97.9440 262.1884 13.13469457257083
ONEWEB-0169             
1 48077U 21025AM  26194.38927272  .00000192  00000+0  49213-3 0  9991
2 48077  87.8980 315.0076 0001963  96.6536 263.4817 13.13469755255742
ONEWEB-0176             
1 48210U 21031A   26193.75456596 -.00000106  00000+0 -32088-3 0  9992
2 48210  87.8967 284.6055 0002125 102.4485 257.6883 13.14502309251674
ONEWEB-0184             
1 48211U 21031B   26194.18431720 -.00000031  00000+0 -11855-3 0  9999
2 48211  87.8981 284.5210 0002544 115.5805 244.5588 13.14502133251705
ONEWEB-0179             
1 48212U 21031C   26194.20748465 -.00001172  00000+0 -39043-3 0  9996
2 48212  87.9000 280.7103 0221292 171.8605 188.6278 14.25557703252750
ONEWEB-0180             
1 48213U 21031D   26194.18749129 -.00000038  00000+0 -13730-3 0  9997
2 48213  87.8977 284.5185 0002438  98.1894 261.9512 13.14503014251630
ONEWEB-0218             
1 48214U 21031E   26194.20968603 -.00000145  00000+0 -42471-3 0  9994
2 48214  87.8979 284.5129 0002798 111.5368 248.6061 13.14503675251797
ONEWEB-0209             
1 48215U 21031F   26194.19859272 -.00000117  00000+0 -34988-3 0  9997
2 48215  87.8967 284.5305 0002261  95.8251 264.3137 13.14503694251791
ONEWEB-0198             
1 48216U 21031G   26194.25898966  .00000063  00000+0  13594-3 0  9996
2 48216  87.8961 284.5147 0002489 102.5825 257.5584 13.14503047251911
