OBJECT_NAME,OBJECT_ID,EPOCH,MEAN_MOTION,ECCENTRICITY,INCLINATION,RA_OF_ASC_NODE,ARG_OF_PERICENTER,MEAN_ANOMALY,EPHEMERIS_TYPE,CLASSIFICATION_TYPE,NORAD_CAT_ID,ELEMENT_SET_NO,REV_AT_EPOCH,BSTAR,MEAN_MOTION_DOT,MEAN_MOTION_DDOT
ONEWEB-0157,2021-025P,2026-07-13T08:36:39.875040,13.13471058,.0002268,87.8979,315.0159,96.7010,263.4377,0,U,48055,999,25700,-.8638E-3,-.303E-5,0
ONEWEB-0162,2021-025Q,2026-07-13T09:52:03.352224,13.13469002,.0001905,87.8980,315.0053,97.4821,262.6524,0,U,48056,999,25698,.63633E-3,.245E-5,0
ONEWEB-0155,2021-025R,2026-07-13T08:12:18.933120,13.13473349,.0002037,87.8980,315.0159,99.0346,261.1013,0,U,48057,999,25711,.19794E-3,.85E-6,0
ONEWEB-0149,2021-025S,2026-07-13T08:43:59.176704,13.13469447,.0001825,87.8978,315.0169,99.8490,260.2845,0,U,48058,999,25692,-.1013E-2,-.357E-5,0
ONEWEB-0148,2021-025T,2026-07-13T07:50:21.735744,13.13469477,.0001961,87.8976,315.0281,83.6454,276.4899,0,U,48059,999,25704,.81242E-3,.309E-5,0
ONEWEB-0160,2021-025U,2026-07-13T08:14:43.600416,13.13469068,.0001312,87.8976,315.0208,115.2151,244.9114,0,U,48060,999,25699,.46746E-4,.3E-6,0
ONEWEB-0163,2021-025V,2026-07-13T07:52:47.939232,13.13469256,.0002204,87.8986,315.0201,99.4768,260.6611,0,U,48061,999,25711,.79827E-3,.304E-5,0
ONEWEB-0159,2021-025W,2026-07-13T09:30:18.300096,13.13470252,.0002199,87.8986,315.0007,99.7239,260.4139,0,U,48062,999,25704,.80712E-3,.308E-5,0
ONEWEB-0164,2021-025X,2026-07-13T09:03:28.907424,13.13470084,.0001874,87.8981,315.0111,102.8987,257.2352,0,U,48063,999,25702,-.37245E-3,-.123E-5,0
ONEWEB-0167,2021-025Y,2026-07-13T09:43:43.434048,13.13469910,.0002484,87.8971,315.0134,107.6559,252.4841,0,U,48064,999,25701,.86418E-3,.328E-5,0
ONEWEB-0166,2021-025Z,2026-07-13T08:26:55.311648,13.13469738,.0001999,87.8988,314.9973,98.2822,261.8534,0,U,48065,999,25708,-.18852E-3,-.56E-6,0
ONEWEB-0151,2021-025AA,2026-07-13T08:29:20.836032,13.13469551,.0002015,87.8983,315.0119,103.1214,257.0140,0,U,48066,999,25702,-.48425E-3,-.164E-5,0
ONEWEB-0170,2021-025AB,2026-07-13T08:41:31.950240,13.13468974,.0001788,87.8980,315.0124,117.7452,242.3858,0,U,48067,999,25698,-.95641E-3,-.336E-5,0
ONEWEB-0168,2021-025AC,2026-07-13T08:19:36.186240,13.13468758,.0001994,87.8986,315.0162,101.8811,258.2542,0,U,48068,999,25699,-.21261E-3,-.65E-6,0
ONEWEB-0173,2021-025AD,2026-07-13T09:57:07.030944,13.13469073,.0002313,87.8979,315.0030,102.0203,258.1185,0,U,48069,999,25724,.41383E-3,.164E-5,0
ONEWEB-0171,2021-025AE,2026-07-13T09:01:02.507808,13.13470122,.0001961,87.8973,315.0186,103.0955,257.0393,0,U,48070,999,25705,-.48068E-3,-.163E-5,0
ONEWEB-0172,2021-025AF,2026-07-13T08:31:47.119008,13.13470571,.0002084,87.8984,315.0145,102.7358,257.4004,0,U,48071,999,25794,-.38528E-3,-.128E-5,0
ONEWEB-0174,2021-025AG,2026-07-13T08:04:59.305728,13.13468844,.0001957,87.8983,315.0170,96.2524,263.8828,0,U,48072,999,25726,.50406E-3,.197E-5,0
ONEWEB-0175,2021-025AH,2026-07-13T08:48:51.174144,13.13469978,.0002085,87.8983,314.9964,108.6980,251.4376,0,U,48073,999,25692,-.62512E-3,-.216E-5,0
ONEWEB-0177,2021-025AJ,2026-07-13T09:05:55.302720,13.13470639,.0002105,87.8980,315.0117,95.9891,264.1478,0,U,48074,999,25711,-.26764E-3,-.85E-6,0
ONEWEB-0178,2021-025AK,2026-07-13T07:43:14.913696,13.13470930,.0002173,87.8976,315.0324,105.0060,255.1310,0,U,48075,999,25715,.86116E-3,.327E-5,0
ONEWEB-0108,2021-025AL,2026-07-13T08:34:13.706112,13.13469457,.0001721,87.8983,315.0086,97.9440,262.1884,0,U,48076,999,25708,-.70308E-3,-.244E-5,0
ONEWEB-0169,2021-025AM,2026-07-13T09:20:33.163008,13.13469755,.0001963,87.8980,315.0076,96.6536,263.4817,0,U,48077,999,25574,.49213E-3,.192E-5,0
ONEWEB-0176,2021-031A,2026-07-12T18:06:34.498944,13.14502309,.00021254,87.8967,284.6055,102.4485,257.6883,0,U,48210,999,25167,-.32087539E-3,-.106E-5,0
ONEWEB-0184,2021-031B,2026-07-13T04:25:25.006080,13.14502133,.0002544,87.8981,284.5210,115.5805,244.5588,0,U,48211,999,25170,-.11855435E-3,-.31E-6,0
ONEWEB-0179,2021-031C,2026-07-13T04:58:46.673760,14.25557703,.02212927,87.9000,280.7103,171.8605,188.6278,0,U,48212,999,25275,-.39042882E-3,-.1172E-4,0
ONEWEB-0180,2021-031D,2026-07-13T04:29:59.247456,13.14503014,.00024385,87.8977,284.5185,98.1894,261.9512,0,U,48213,999,25163,-.13730455E-3,-.38E-6,0
ONEWEB-0218,2021-031E,2026-07-13T05:01:56.872992,13.14503675,.00027989,87.8979,284.5129,111.5368,248.6061,0,U,48214,999,25179,-.42471176E-3,-.145E-5,0
ONEWEB-0209,2021-031F,2026-07-13T04:45:58.411008,13.14503694,.00022612,87.8967,284.5305,95.8251,264.3137,0,U,48215,999,25179,-.34987637E-3,-.117E-5,0
ONEWEB-0198,2021-031G,2026-07-13T06:12:56.706624,13.14503047,.0002489,87.8961,284.5147,102.5825,257.5584,0,U,48216,999,25191,.13594E-3,.63E-6,0
